     2.100          NAVIGATION                              RINEX VERSION / TYPE
fic2rin                                 05/22/2016 00:05:03 PGM / RUN BY / DATE
                                                            END OF HEADER
30 16  5 21 16  0  0.0  .127031002194D-03  .306954461848D-11  .000000000000D+00
     .290000000000D+02  .960625000000D+02  .503913847177D-08 -.295095394847D+01
     .508688390255D-05  .207235245034D-02  .264309346676D-05  .515360519409D+04
     .576000000000D+06 -.167638063431D-07  .116640143888D+01 -.484287738800D-07
     .952164466592D+00  .327781250000D+03  .300022262727D+01 -.847142429740D-08
     .335013954676D-09  .100000000000D+01  .189700000000D+04  .000000000000D+00
     .240000000000D+01  .000000000000D+00  .325962901115D-08  .290000000000D+02
     .568806000000D+06  .400000000000D+01
31 16  5 21 16  0  0.0  .267881900072D-03 -.193267624127D-11  .000000000000D+00
     .450000000000D+02  .949062500000D+02  .455411826873D-08  .307044938207D+01
     .501610338688D-05  .817736389581D-02  .356696546078D-05  .515375057220D+04
     .576000000000D+06 -.154599547386D-06  .113149282539D+01  .109896063805D-06
     .971218385018D+00  .317187500000D+03 -.397294495059D+00 -.807819363205D-08
     .330728061866D-09  .100000000000D+01  .189700000000D+04  .000000000000D+00
     .240000000000D+01  .000000000000D+00 -.135041773319D-07  .450000000000D+02
     .568806000000D+06  .400000000000D+01
32 16  5 21 16  0  0.0 -.969227403402D-05 -.636646291241D-11  .000000000000D+00
     .140000000000D+02  .495937500000D+02  .432625163432D-08  .645015151813D-01
     .254437327385D-05  .364566687495D-03  .113584101200D-04  .515361612892D+04
     .576000000000D+06 -.204890966415D-07  .456689143164D-01  .149011611938D-07
     .960168764346D+00  .162656250000D+03 -.233808513555D+01 -.778460997454D-08
    -.108218793461D-09  .100000000000D+01  .189700000000D+04  .000000000000D+00
     .240000000000D+01  .000000000000D+00  .465661287308D-09  .140000000000D+02
     .568806000000D+06  .400000000000D+01
18 16  5 21 15 59 44.0  .518009066582D-03  .409272615798D-11  .000000000000D+00
     .100000000000D+01 -.356875000000D+02  .567130766130D-08  .128325450303D+01
    -.197067856789D-05  .171730510192D-01  .583752989769D-05  .515367834854D+04
     .575984000000D+06 -.337138772011D-06 -.102776454291D+01 -.160187482834D-06
     .924670259862D+00  .250031250000D+03 -.188497611865D+01 -.879500920458D-08
    -.378230040514D-09  .100000000000D+01  .189700000000D+04  .000000000000D+00
     .240000000000D+01  .000000000000D+00 -.121071934700D-07  .100000000000D+01
     .571206000000D+06  .400000000000D+01
 9 16  5 21 15 59 44.0  .133392401040D-03  .727595761418D-11  .000000000000D+00
     .600000000000D+01  .590625000000D+02  .440089760076D-08 -.571820983256D+00
     .273436307907D-05  .571588636376D-03  .110771507025D-04  .515358376884D+04
     .575984000000D+06  .391155481339D-07  .443039503059D-01  .186264514923D-08
     .955569888259D+00  .162843750000D+03  .224177708077D+01 -.786211320286D-08
    -.101789954246D-09  .100000000000D+01  .189700000000D+04  .000000000000D+00
     .240000000000D+01  .000000000000D+00  .139698386192D-08  .600000000000D+01
     .572136000000D+06  .400000000000D+01
27 16  5 21 15 59 44.0  .948938541114D-04  .409272615798D-11  .000000000000D+00
     .240000000000D+02 -.661875000000D+02  .393302096897D-08 -.260279789447D+00
    -.362843275070D-05  .366406457033D-02  .107772648335D-04  .515364638901D+04
     .575984000000D+06  .987201929092D-07 -.309414462608D+01  .409781932831D-07
     .971674136665D+00  .176843750000D+03  .275415100396D+00 -.770710674622D-08
    -.467876631797D-10  .100000000000D+01  .189700000000D+04  .000000000000D+00
     .240000000000D+01  .000000000000D+00  .139698386192D-08  .240000000000D+02
     .572136000000D+06  .400000000000D+01
 9 16  5 21 17 59 44.0  .133445020765D-03  .727595761418D-11  .000000000000D+00
     .700000000000D+01  .528750000000D+02  .427553523606D-08  .478014427700D+00
     .279583036900D-05  .572316232137D-03  .108182430267D-04  .515358511162D+04
     .583184000000D+06  .111758708954D-07  .442472827112D-01  .298023223877D-07
     .955569303091D+00  .164906250000D+03  .224217620432D+01 -.785497004817D-08
    -.796461747257D-10  .100000000000D+01  .189700000000D+04  .000000000000D+00
     .240000000000D+01  .000000000000D+00  .139698386192D-08  .700000000000D+01
     .576006000000D+06  .400000000000D+01
18 16  5 21 17 59 44.0  .518038403243D-03  .409272615798D-11  .000000000000D+00
     .100000000000D+02 -.368125000000D+02  .538843873582D-08  .233342876970D+01
    -.202842056751D-05  .171731022419D-01  .551529228687D-05  .515367865944D+04
     .583184000000D+06  .221654772758D-06 -.102782599863D+01 -.230967998505D-06
     .924670188179D+00  .251156250000D+03 -.188496520528D+01 -.822891419588D-08
    -.353228999120D-09  .100000000000D+01  .189700000000D+04  .000000000000D+00
     .240000000000D+01  .000000000000D+00 -.121071934700D-07  .100000000000D+02
     .576006000000D+06  .400000000000D+01
27 16  5 21 17 59 44.0  .949231907725D-04  .409272615798D-11  .000000000000D+00
     .250000000000D+02 -.735000000000D+02  .407624122038D-08  .790042485035D+00
    -.363588333130D-05  .366328039672D-02  .105667859316D-04  .515364472389D+04
     .583184000000D+06  .111758708954D-07 -.309420031206D+01  .149011611938D-07
     .971673684623D+00  .177125000000D+03  .275286970716D+00 -.773425073402D-08
    -.589310261424D-10  .100000000000D+01  .189700000000D+04  .000000000000D+00
     .240000000000D+01  .000000000000D+00  .139698386192D-08  .250000000000D+02
     .576006000000D+06  .400000000000D+01
 1 16  5 21 18  0  0.0  .211028382182D-04  .125055521494D-11  .000000000000D+00
     .770000000000D+02  .292500000000D+02  .450661629009D-08 -.131312573952D+01
     .151805579662D-05  .544726965018D-02  .686198472977D-05  .515364001656D+04
     .583200000000D+06  .931322574615D-07 -.203686008600D+01 -.126659870148D-06
     .964124431927D+00  .250937500000D+03  .458268037000D+00 -.794818821680D-08
     .363586573412D-09  .100000000000D+01  .189700000000D+04  .000000000000D+00
     .340000000000D+01  .000000000000D+00  .512227416039D-08  .770000000000D+02
     .576006000000D+06  .400000000000D+01
 2 16  5 21 18  0  0.0  .590490177274D-03 -.227373675443D-11  .000000000000D+00
     .580000000000D+02  .364062500000D+02  .519307345521D-08 -.959663507551D+00
     .204704701900D-05  .156720083905D-01  .670179724693D-05  .515377247810D+04
     .583200000000D+06  .145286321640D-06 -.208226557412D+01  .378116965294D-06
     .942927133706D+00  .243156250000D+03 -.211813980278D+01 -.847642450568D-08
     .381801617856D-09  .100000000000D+01  .189700000000D+04  .000000000000D+00
     .240000000000D+01  .000000000000D+00 -.200234353542D-07  .580000000000D+02
     .576006000000D+06  .400000000000D+01
 3 16  5 21 18  0  0.0 -.599157065153D-04 -.375166564481D-11  .000000000000D+00
     .600000000000D+02 -.310000000000D+02  .464805075283D-08 -.283782525138D-01
    -.152736902237D-05  .234072445892D-03  .624358654022D-05  .515369445610D+04
     .583200000000D+06 -.577419996262D-07 -.995036288855D+00  .763684511185D-07
     .958964522367D+00  .258937500000D+03 -.195647443746D+01 -.805247827518D-08
    -.347514475373D-09  .100000000000D+01  .189700000000D+04  .000000000000D+00
     .240000000000D+01  .000000000000D+00  .186264514923D-08  .600000000000D+02
     .576006000000D+06  .400000000000D+01
 4 16  5 21 18  0  0.0 -.256608705968D-03 -.682121026330D-12  .000000000000D+00
     .460000000000D+02 -.922812500000D+02  .560880505782D-08  .186403357152D+01
    -.487081706524D-05  .850361736957D-02  .327266752720D-05  .515364345169D+04
     .583200000000D+06 -.162050127983D-06  .216943758992D+01 -.782310962677D-07
     .983152733195D+00  .331656250000D+03  .887504975276D+00 -.812033824468D-08
    -.306084178206D-09  .100000000000D+01  .189700000000D+04  .000000000000D+00
     .240000000000D+01  .630000000000D+02 -.195577740669D-07  .460000000000D+02
     .576006000000D+06  .400000000000D+01
 5 16  5 21 18  0  0.0 -.119053758681D-03  .306954461848D-11  .000000000000D+00
     .280000000000D+02 -.294375000000D+02  .504806741513D-08  .155957510144D+01
    -.148080289364D-05  .460897036828D-02  .615231692791D-05  .515378851891D+04
     .583200000000D+06 -.447034835815D-07 -.100685674301D+01  .167638063431D-07
     .946029558706D+00  .255000000000D+03  .453683537009D+00 -.827248743945D-08
    -.456090426568D-09  .100000000000D+01  .189700000000D+04  .000000000000D+00
     .240000000000D+01  .000000000000D+00 -.107102096081D-07  .280000000000D+02
     .576006000000D+06  .400000000000D+01
 6 16  5 21 18  0  0.0  .193485058844D-03  .545696821064D-11  .000000000000D+00
     .810000000000D+02  .324687500000D+02  .462697844651D-08 -.987295658679D+00
     .169686973095D-05  .437893788330D-03  .672228634357D-05  .515368802452D+04
     .583200000000D+06  .558793544769D-07 -.204529545013D+01  .707805156708D-07
     .963961173195D+00  .252937500000D+03 -.142825040400D+01 -.804890669784D-08
     .442518432669D-09  .100000000000D+01  .189700000000D+04  .000000000000D+00
     .240000000000D+01  .000000000000D+00  .419095158577D-08  .810000000000D+02
     .576006000000D+06  .400000000000D+01
 7 16  5 21 18  0  0.0  .453270971775D-03 -.227373675443D-11  .000000000000D+00
     .101000000000D+03  .926250000000D+02  .463162149705D-08 -.204253299997D+01
     .454857945442D-05  .942483881954D-02  .329315662384D-05  .515365015602D+04
     .583200000000D+06  .128522515297D-06  .112210527276D+01 -.912696123123D-07
     .966409265659D+00  .319968750000D+03 -.267785725578D+01 -.820748473183D-08
     .450733060555D-09  .100000000000D+01  .189700000000D+04  .000000000000D+00
     .340000000000D+01  .000000000000D+00 -.111758708954D-07  .101000000000D+03
     .576006000000D+06  .400000000000D+01
